[{"OBJECT_NAME":"CORVUS BC1","OBJECT_ID":"2017-042Y","EPOCH":"2026-03-09T22:24:00.973440","MEAN_MOTION":15.05817893,"ECCENTRICITY":0.00132832,"INCLINATION":97.3986,"RA_OF_ASC_NODE":234.9925,"ARG_OF_PERICENTER":71.1953,"MEAN_ANOMALY":289.0714,"EPHEMERIS_TYPE":0,"CLASSIFICATION_TYPE":"U","NORAD_CAT_ID":42847,"ELEMENT_SET_NO":999,"REV_AT_EPOCH":47215,"BSTAR":0.00033801202,"MEAN_MOTION_DOT":4.853e-5,"MEAN_MOTION_DDOT":0},{"OBJECT_NAME":"STARLINK-5350","OBJECT_ID":"2023-061AX","EPOCH":"2026-03-09T09:28:33.115008","MEAN_MOTION":15.02527704,"ECCENTRICITY":0.00013249,"INCLINATION":43.0033,"RA_OF_ASC_NODE":185.7805,"ARG_OF_PERICENTER":265.9969,"MEAN_ANOMALY":94.0722,"EPHEMERIS_TYPE":0,"CLASSIFICATION_TYPE":"U","NORAD_CAT_ID":56419,"ELEMENT_SET_NO":999,"REV_AT_EPOCH":15686,"BSTAR":0.00012823937,"MEAN_MOTION_DOT":1.529e-5,"MEAN_MOTION_DDOT":0}]
