CORVUS BC1              
1 42847U 17042Y   26068.93334460  .00004853  00000+0  33801-3 0  9990
2 42847  97.3986 234.9925 0013283  71.1953 289.0714 15.05817892472152
STARLINK-5350           
1 56419U 23061AX  26068.39482772  .00001529  00000+0  12824-3 0  9997
2 56419  43.0033 185.7805 0001324 265.9969  94.0722 15.02527704156863
